SES-18                  
1 55970U 23038A   26066.13168223 -.00000103  00000+0  00000+0 0  9991
2 55970   0.0532 271.9090 0002284  40.3300 156.8963  1.00272275 11086
SES-19                  
1 55971U 23038B   26066.14628090  .00000085  00000+0  00000+0 0  9994
2 55971   0.0475 290.4928 0001793  62.2265  89.8852  1.00271098 11057
INTELSAT 40E (IS-40E)   
1 56174U 23052A   26066.13402223 -.00000177  00000+0  00000+0 0  9996
2 56174   0.0119 137.1061 0000713 231.1459 113.8307  1.00272298 10804
VIASAT-3 F1             
1 56370U 23060A   26066.12405812  .00000000  00000+0  00000+0 0  9993
2 56370   0.0192 161.2973 0000632 282.8250  36.4777  1.00271024 10419
ARCTURUS                
1 56371U 23060B   26066.09510875 -.00000065  00000+0  00000+0 0  9998
2 56371   2.5115  81.2394 0000712 344.9979 205.2951  1.00273020 10437
GS-1                    
1 56372U 23060C   26065.50403648 -.00000179  00000+0  00000+0 0  9999
2 56372   2.4607  81.0544 0004761 262.8920  85.1835  1.00299102  6508
BEIDOU-3 G4             
1 56564U 23066A   26066.18376916 -.00000114  00000+0  00000+0 0  9999
2 56564   0.6436 311.3008 0002295 156.0566 283.7341  1.00272461 10372
ARABSAT-7B (BADR-8)     
1 56757U 23075A   26066.07802911  .00000142  00000+0  00000+0 0  9990
2 56757   0.0781  25.8379 0005512 331.1491 221.8789  1.00266509 10093
NVS-01 (IRNSS-1J)       
1 56759U 23076A   26066.03513515 -.00000340  00000+0  00000+0 0  9999
2 56759   2.4125 248.5281 0007191  46.1018  12.2922  1.00272929 10096
NUSANTARA TIGA (SATRIA) 
1 57045U 23086A   26065.96710152  .00000000  00000+0  00000+0 0  9998
2 57045   0.0223 284.8879 0005901  40.4813 333.4809  1.00268054  8735
H2SAT (HEINRICH HERTZ)  
1 57213U 23093A   26066.07336435 -.00000001  00000+0  00000+0 0  9996
2 57213   0.0451 303.5692 0001497 161.7097  86.5961  1.00271683  9899
SYRACUSE 4B             
1 57214U 23093B   26066.00818169 -.00000056  00000+0  00000+0 0  9999
2 57214   0.0213 141.4242 0000331 269.6057 110.1482  1.00271591  5948
JUPITER 3 (ECHOSTAR 24) 
1 57479U 23108A   26065.80734059 -.00000153  00000+0  00000+0 0  9999
2 57479   0.0105 139.8871 0001118 201.1407  18.9424  1.00271729  9627
GALAXY 37 (G-37)        
1 57493U 23112A   26066.14628090  .00000046  00000+0  00000+0 0  9995
2 57493   0.0142 106.2109 0002034 246.2989  97.9905  1.00272255  9513
LUDI TANCE-4 01A        
1 57624U 23120A   26065.81331012 -.00000191  00000+0  00000+0 0  9990
2 57624  15.1734 196.5024 0005067 107.5024 242.9324  1.00268733  9512
TJS-10                  
1 58204U 23169A   26065.73734447 -.00000320  00000+0  00000+0 0  9992
2 58204   2.2800  81.7414 0010983 234.7724 230.4499  0.99764814  8511
ZHONGXING-6E            
1 58253U 23172A   26065.64211558 -.00000365  00000+0  00000+0 0  9992
2 58253   0.0529 267.5543 0002655  92.4842 150.9430  1.00267455  8639
